NORAD_CAT_ID,OBJECT_NAME,OBJECT_TYPE,EPOCH,MEAN_MOTION,ECCENTRICITY,INCLINATION,RA_OF_ASC_NODE,ARG_OF_PERICENTER,MEAN_ANOMALY,BSTAR,MEAN_MOTION_DOT,MEAN_MOTION_DDOT,TLE_LINE0,TLE_LINE1,TLE_LINE2,SEMIMAJOR_AXIS,PERIOD,APOGEE,PERIGEE,DECAYED
53859.0,STARLINK-4790,PAYLOAD,2023-09-16 13:33:55,15.08839607,0.0001522,53.2193,32.0381,77.0279,283.0883,0.00010605,1.4e-05,0.0,0 STARLINK-4790,1 53859U 22114AT  23259.56522387  .00001400  00000-0  10605-3 0  9999,2 53859  53.2193  32.0381 0001522  77.0279 283.0883 15.08839607 56408,6917.882,95.438,540.799,538.694,0.0
53859.0,STARLINK-4790,PAYLOAD,2023-09-17 08:38:33,15.08826365,0.0001395,53.2189,28.4702,79.2255,280.8894,0.00034876,5.265e-05,0.0,0 STARLINK-4790,1 53859U 22114AT  23260.36011022  .00005265  00000-0  34876-3 0  9997,2 53859  53.2189  28.4702 0001395  79.2255 280.8894 15.08826365 55981,6917.922,95.438,540.752,538.822,0.0
53859.0,STARLINK-4790,PAYLOAD,2023-09-17 15:00:05,15.08845328,0.0001474,53.2196,27.2816,73.1654,286.95,0.00016779,2.384e-05,0.0,0 STARLINK-4790,1 53859U 22114AT  23260.62506296  .00002384  00000-0  16779-3 0  9999,2 53859  53.2196  27.2816 0001474  73.1654 286.9500 15.08845328 56023,6917.864,95.437,540.749,538.709,0.0
53859.0,STARLINK-4790,PAYLOAD,2023-09-18 02:07:48,15.08829949,0.0001678,53.2195,25.2006,72.8079,287.3096,0.00031624,4.747e-05,0.0,0 STARLINK-4790,1 53859U 22114AT  23261.08875192  .00004747  00000-0  31624-3 0  9995,2 53859  53.2195  25.2006 0001678  72.8079 287.3096 15.08829949 56097,6917.911,95.438,540.937,538.615,0.0
53859.0,STARLINK-4790,PAYLOAD,2023-09-18 13:15:30,15.08837367,0.0001598,53.2203,23.1186,82.5625,277.5548,2.4185e-05,9.7e-07,0.0,0 STARLINK-4790,1 53859U 22114AT  23261.55243155  .00000097  00000-0  24185-4 0  9994,2 53859  53.2203  23.1186 0001598  82.5625 277.5548 15.08837367 56703,6917.888,95.438,540.859,538.648,0.0
53859.0,STARLINK-4790,PAYLOAD,2023-09-18 14:50:52,15.08840677,0.000165,53.2206,22.8204,98.8982,261.2197,4.096e-05,3.64e-06,0.0,0 STARLINK-4790,1 53859U 22114AT  23261.61866817  .00000364  00000-0  40960-4 0  9993,2 53859  53.2206  22.8204 0001650  98.8982 261.2197 15.08840677 56177,6917.878,95.438,540.885,538.602,0.0
53859.0,STARLINK-4790,PAYLOAD,2023-09-19 14:41:39,15.08852308,0.0001557,53.2194,18.3597,101.5362,258.5805,0.00017305,2.468e-05,0.0,0 STARLINK-4790,1 53859U 22114AT  23262.61225960  .00002468  00000-0  17305-3 0  9995,2 53859  53.2194  18.3597 0001557 101.5362 258.5805 15.08852308 56324,6917.843,95.437,540.785,538.631,0.0
53859.0,STARLINK-4790,PAYLOAD,2023-09-20 12:57:04,15.08824846,0.0001367,53.2187,14.1923,93.7478,266.367,-0.00010137,-1.9e-05,0.0,0 STARLINK-4790,1 53859U 22114AT  23263.53963794 -.00001900  00000-0 -10137-3 0  9999,2 53859  53.2187  14.1923 0001367  93.7478 266.3670 15.08824846 56460,6917.927,95.439,540.737,538.846,0.0
53859.0,STARLINK-4790,PAYLOAD,2023-09-20 14:32:28,15.08820626,0.0001401,53.2194,13.8999,84.9932,275.122,-0.00017113,-3.009e-05,0.0,0 STARLINK-4790,1 53859U 22114AT  23263.60588097 -.00003009  00000-0 -17113-3 0  9999,2 53859  53.2194  13.8999 0001401  84.9932 275.1220 15.08820626 57016,6917.94,95.439,540.774,538.835,0.0
53859.0,STARLINK-4790,PAYLOAD,2023-09-21 08:01:42,15.08837243,0.0001265,53.2177,10.6255,69.1519,290.9608,0.00011425,1.531e-05,0.0,0 STARLINK-4790,1 53859U 22114AT  23264.33451776  .00001531  00000-0  11425-3 0  9999,2 53859  53.2177  10.6255 0001265  69.1519 290.9608 15.08837243 56580,6917.889,95.438,540.629,538.879,0.0
53859.0,STARLINK-4790,PAYLOAD,2023-09-21 12:47:51,15.08843541,0.0001448,53.2192,9.7381,84.2648,275.8509,0.0002167,3.163e-05,0.0,0 STARLINK-4790,1 53859U 22114AT  23264.53323315  .00003163  00000-0  21670-3 0  9994,2 53859  53.2192   9.7381 0001448  84.2648 275.8509 15.08843541 57154,6917.87,95.437,540.736,538.733,0.0
53859.0,STARLINK-4790,PAYLOAD,2023-09-22 11:03:15,15.088428,0.0001468,53.2191,5.5741,78.3873,281.7284,0.00025523,3.777e-05,0.0,0 STARLINK-4790,1 53859U 22114AT  23265.46059615  .00003777  00000-0  25523-3 0  9998,2 53859  53.2191   5.5741 0001468  78.3873 281.7284 15.08842800 56751,6917.872,95.437,540.752,538.721,0.0
53859.0,STARLINK-4790,PAYLOAD,2023-09-22 12:38:38,15.08842702,0.0001551,53.2193,5.2766,75.2792,284.8372,0.00034446,5.199e-05,0.0,0 STARLINK-4790,1 53859U 22114AT  23265.52683722  .00005199  00000-0  34446-3 0  9991,2 53859  53.2193   5.2766 0001551  75.2792 284.8372 15.08842702 57301,6917.872,95.437,540.81,538.664,0.0
53859.0,STARLINK-4790,PAYLOAD,2023-09-22 14:14:01,15.08844109,0.000155,53.219,4.9785,77.2183,282.8982,0.00036793,5.573e-05,0.0,0 STARLINK-4790,1 53859U 22114AT  23265.59307589  .00005573  00000-0  36793-3 0  9995,2 53859  53.2190   4.9785 0001550  77.2183 282.8982 15.08844109 57319,6917.868,95.437,540.805,538.661,0.0
53859.0,STARLINK-4790,PAYLOAD,2023-09-23 12:29:25,15.08848262,0.0001571,53.2192,0.8165,71.2143,288.9019,4.3081e-05,3.98e-06,0.0,0 STARLINK-4790,1 53859U 22114AT  23266.52043128  .00000398  00000-0  43081-4 0  9994,2 53859  53.2192   0.8165 0001571  71.2143 288.9019 15.08848262 56918,6917.855,95.437,540.807,538.633,0.0
53859.0,STARLINK-4790,PAYLOAD,2023-09-24 12:20:11,15.08858347,0.0001135,53.2178,356.3569,74.1519,285.9598,0.00020054,2.907e-05,0.0,0 STARLINK-4790,1 53859U 22114AT  23267.51401959  .00002907  00000-0  20054-3 0  9996,2 53859  53.2178 356.3569 0001135  74.1519 285.9598 15.08858347 57605,6917.824,95.436,540.474,538.904,0.0
53859.0,STARLINK-4790,PAYLOAD,2023-09-25 09:00:11,15.08857491,0.0001534,53.2179,352.4891,92.5743,267.5425,0.00018325,2.631e-05,0.0,0 STARLINK-4790,1 53859U 22114AT  23268.37513407  .00002631  00000-0  18325-3 0  9995,2 53859  53.2179 352.4891 0001534  92.5743 267.5425 15.08857491 57195,6917.827,95.436,540.753,538.631,0.0
53859.0,STARLINK-4790,PAYLOAD,2023-09-25 12:10:57,15.08861155,0.00015,53.2181,351.8941,80.4704,279.6458,0.00021268,3.1e-05,0.0,0 STARLINK-4790,1 53859U 22114AT  23268.50761217  .00003100  00000-0  21268-3 0  9996,2 53859  53.2181 351.8941 0001500  80.4704 279.6458 15.08861155 57757,6917.816,95.436,540.718,538.643,0.0
53859.0,STARLINK-4790,PAYLOAD,2023-09-26 10:26:23,15.08828994,0.0001421,53.218,347.7321,97.5991,262.5163,-0.00028161,-4.766e-05,0.0,0 STARLINK-4790,1 53859U 22114AT  23269.43498975 -.00004766  00000-0 -28161-3 0  9997,2 53859  53.2180 347.7321 0001421  97.5991 262.5163 15.08828994 57355,6917.914,95.438,540.762,538.796,0.0
53859.0,STARLINK-4790,PAYLOAD,2023-09-26 12:01:46,15.08823897,0.000151,53.2184,347.4324,103.3515,256.7646,-0.00037689,-6.278e-05,0.0,0 STARLINK-4790,1 53859U 22114AT  23269.50123139 -.00006278  00000-0 -37689-3 0  9997,2 53859  53.2184 347.4324 0001510 103.3515 256.7646 15.08823897 57905,6917.93,95.439,540.839,538.75,0.0
53859.0,STARLINK-4790,PAYLOAD,2023-09-27 08:41:47,15.08840754,0.0001292,53.2178,343.5654,89.9605,270.1536,0.0002805,4.179e-05,0.0,0 STARLINK-4790,1 53859U 22114AT  23270.36235255  .00004179  00000-0  28050-3 0  9994,2 53859  53.2178 343.5654 0001292  89.9605 270.1536 15.08840754 57490,6917.878,95.438,540.637,538.849,0.0
53859.0,STARLINK-4790,PAYLOAD,2023-09-27 11:52:33,15.08848663,0.0001381,53.218,342.9724,87.3188,272.7962,0.00069794,0.0001084,0.0,0 STARLINK-4790,1 53859U 22114AT  23270.49483267  .00010840  00000-0  69794-3 0  9998,2 53859  53.2180 342.9724 0001381  87.3188 272.7962 15.08848663 58052,6917.854,95.437,540.674,538.764,0.0
53859.0,STARLINK-4790,PAYLOAD,2023-09-28 05:21:48,15.08840896,0.0001418,53.2181,339.7013,87.5639,272.5515,0.00031615,4.747e-05,0.0,0 STARLINK-4790,1 53859U 22114AT  23271.22347967  .00004747  00000-0  31615-3 0  9996,2 53859  53.2181 339.7013 0001418  87.5639 272.5515 15.08840896 57626,6917.878,95.437,540.724,538.762,0.0
53859.0,STARLINK-4790,PAYLOAD,2023-09-28 11:43:21,15.08841105,0.0001459,53.2178,338.5138,98.0893,262.0265,0.00033538,5.054e-05,0.0,0 STARLINK-4790,1 53859U 22114AT  23271.48844012  .00005054  00000-0  33538-3 0  9995,2 53859  53.2178 338.5138 0001459  98.0893 262.0265 15.08841105 58206,6917.877,95.437,540.751,538.733,0.0
53859.0,STARLINK-4790,PAYLOAD,2023-09-29 11:34:08,15.08849271,0.0001464,53.2172,334.053,89.1926,270.9234,0.00039766,6.048e-05,0.0,0 STARLINK-4790,1 53859U 22114AT  23272.48204069  .00006048  00000-0  39766-3 0  9991,2 53859  53.2172 334.0530 0001464  89.1926 270.9234 15.08849271 57813,6917.852,95.437,540.73,538.704,0.0
53859.0,STARLINK-4790,PAYLOAD,2023-09-29 13:09:31,15.08853038,0.0001452,53.2169,333.7553,87.9843,272.1316,0.00050279,7.726e-05,0.0,0 STARLINK-4790,1 53859U 22114AT  23272.54827960  .00007726  00000-0  50279-3 0  9995,2 53859  53.2169 333.7553 0001452  87.9843 272.1316 15.08853038 58363,6917.841,95.437,540.71,538.701,0.0
53859.0,STARLINK-4790,PAYLOAD,2023-09-30 20:57:13,15.08856573,0.0001489,53.2165,327.8089,88.5736,271.5427,0.0002554,3.781e-05,0.0,0 STARLINK-4790,1 53859U 22114AT  23273.87307030  .00003781  00000-0  25540-3 0  9993,2 53859  53.2165 327.8089 0001489  88.5736 271.5427 15.08856573 58021,6917.83,95.437,540.725,538.665,0.0
53859.0,STARLINK-4790,PAYLOAD,2023-10-01 11:15:41,15.08848729,0.0001542,53.2155,325.1324,90.6981,269.4188,0.00017252,2.459e-05,0.0,0 STARLINK-4790,1 53859U 22114AT  23274.46923190  .00002459  00000-0  17252-3 0  9992,2 53859  53.2155 325.1324 0001542  90.6981 269.4188 15.08848729 58113,6917.854,95.437,540.785,538.652,0.0
53859.0,STARLINK-4790,PAYLOAD,2023-10-01 20:48:00,15.08832901,0.0001562,53.217,323.3459,89.1932,270.9239,-1.3165e-05,-4.97e-06,0.0,0 STARLINK-4790,1 53859U 22114AT  23274.86667797 -.00000497  00000-0 -13165-4 0  9996,2 53859  53.2170 323.3459 0001562  89.1932 270.9239 15.08832901 58715,6917.902,95.438,540.848,538.687,0.0
53859.0,STARLINK-4790,PAYLOAD,2023-10-02 03:09:33,15.08829002,0.0001791,53.2148,322.1602,82.8506,277.269,1.3015e-05,-8.1e-07,0.0,0 STARLINK-4790,1 53859U 22114AT  23275.13164277 -.00000081  00000-0  13015-4 0  9994,2 53859  53.2148 322.1602 0001791  82.8506 277.2690 15.08829002 58212,6917.914,95.438,541.018,538.54,0.0
